<?xml version="1.0" encoding="UTF-8"?>
<kml xmlns="http://www.opengis.net/kml/2.2">
  <Document>
    <name>Bengaluru survey sample</name>
    <Placemark>
      <name>Office</name>
      <Point><coordinates>77.5946,12.9716,0</coordinates></Point>
    </Placemark>
    <Placemark>
      <name>Road segment</name>
      <LineString>
        <coordinates>77.5946,12.9716,0 77.5956,12.9716,0</coordinates>
      </LineString>
    </Placemark>
    <Placemark>
      <name>Survey plot</name>
      <Polygon>
        <outerBoundaryIs>
          <LinearRing>
            <coordinates>
              77.5946,12.9716,0 77.5956,12.9716,0
              77.5956,12.9726,0 77.5946,12.9726,0
              77.5946,12.9716,0
            </coordinates>
          </LinearRing>
        </outerBoundaryIs>
      </Polygon>
    </Placemark>
  </Document>
</kml>
